{
  "status": "success",
  "hasErrors": false,
  "message": "",
  "length": 155,
  "payload": [
    {
      "_index": "tle",
      "_type": "_doc",
      "_id": "DGUrtnYBAz3ao6c9sBiA",
      "_score": 9.904248,
      "_source": {
        "right_ascension": "042.6540",
        "anomaly": "027.9335",
        "calc_anomaly": 27.9335,
        "satellite_number": 10976,
        "calc_mean_motion": 2.2226547,
        "ephemeris": "0",
        "set_number": "129",
        "calc_ballistic_coefficient": 0.00000128,
        "epoch": "13005.52937940",
        "international_designator": "78068B",
        "calc_inclination": 21.788,
        "perigee": "342.8993",
        "revolution_number": "28013",
        "line_number": 77507,
        "calc_perigee": 342.8993,
        "drag": "19270-2",
        "text": "1 10976U 78068B   13005.52937940  .00000128  00000-0  19270-2 0  1297\n2 10976  21.7880  42.6540 7173856 342.8993  27.9335  2.22265470280130",
        "calc_drag": 0.001927,
        "timestamp": "2013-01-05 12:42:18",
        "inclination": "021.7880",
        "eccentricity": "7173856",
        "classification": "U",
        "calc_right_ascension": 42.654,
        "calc_mean_motion_2": 0,
        "ballistic_coefficient": ".00000128",
        "filename": "tle2013.txt",
        "calc_eccentricity": 0.7173856,
        "mean_motion": "02.22265470",
        "mean_motion_2": "00000-0"
      }
    },
    {
      "_index": "tle",
      "_type": "_doc",
      "_id": "WPZFtnYBwxzt-ZlwMmjV",
      "_score": 9.904248,
      "_source": {
        "right_ascension": "277.9939",
        "anomaly": "354.1761",
        "calc_anomaly": 354.1761,
        "satellite_number": 10976,
        "calc_mean_motion": 2.22278939,
        "ephemeris": "0",
        "set_number": "331",
        "calc_ballistic_coefficient": -0.00000101,
        "epoch": "14007.14667144",
        "international_designator": "78068B",
        "calc_inclination": 21.6365,
        "perigee": "205.2431",
        "revolution_number": "28828",
        "line_number": 125607,
        "calc_perigee": 205.2431,
        "drag": "48285-3",
        "text": "1 10976U 78068B   14007.14667144 -.00000101  00000-0  48285-3 0  3310\n2 10976  21.6365 277.9939 7186907 205.2431 354.1761  2.22278939288288",
        "calc_drag": 0.00048285,
        "timestamp": "2014-01-07 03:31:12",
        "inclination": "021.6365",
        "eccentricity": "7186907",
        "classification": "U",
        "calc_right_ascension": 277.9939,
        "calc_mean_motion_2": 0,
        "ballistic_coefficient": "-.00000101",
        "filename": "tle2014.txt",
        "calc_eccentricity": 0.7186907,
        "mean_motion": "02.22278939",
        "mean_motion_2": "00000-0"
      }
    },
    {
      "_index": "tle",
      "_type": "_doc",
      "_id": "7fdPtnYBwxzt-ZlwLw8W",
      "_score": 9.904248,
      "_source": {
        "right_ascension": "024.9194",
        "anomaly": "105.0250",
        "calc_anomaly": 105.025,
        "satellite_number": 10976,
        "calc_mean_motion": 2.22310398,
        "ephemeris": "0",
        "set_number": "000",
        "calc_ballistic_coefficient": -0.00000187,
        "epoch": "16005.60731272",
        "international_designator": "78068B",
        "calc_inclination": 21.8987,
        "perigee": "294.2099",
        "revolution_number": "3013",
        "line_number": 197859,
        "calc_perigee": 294.2099,
        "drag": "+34506-3",
        "text": "1 10976U 78068B   16005.60731272 -.00000187  00000-0  34506-3 0    03\n2 10976  21.8987  24.9194 7180502 294.2099 105.0250  2.22310398 30137",
        "calc_drag": 0.00034506,
        "timestamp": "2016-01-05 14:34:31",
        "inclination": "021.8987",
        "eccentricity": "7180502",
        "classification": "U",
        "calc_right_ascension": 24.9194,
        "calc_mean_motion_2": 0,
        "ballistic_coefficient": "-.00000187",
        "filename": "tle2016.txt",
        "calc_eccentricity": 0.7180502,
        "mean_motion": "02.22310398",
        "mean_motion_2": "+00000-0"
      }
    },
    {
      "_index": "tle",
      "_type": "_doc",
      "_id": "SWhTtnYBAz3ao6c9KBAS",
      "_score": 9.904248,
      "_source": {
        "right_ascension": "25.4198",
        "anomaly": "15.7524",
        "calc_anomaly": 15.7524,
        "satellite_number": 10976,
        "calc_mean_motion": 2.22310308,
        "ephemeris": "0",
        "set_number": "778",
        "calc_ballistic_coefficient": -0.00000133,
        "epoch": "16004.14628751",
        "international_designator": "78068B",
        "calc_inclination": 21.8979,
        "perigee": "293.3173",
        "revolution_number": "30446",
        "line_number": 112577,
        "calc_perigee": 293.3173,
        "drag": "92780-3",
        "text": "1 10976U 78068B   16004.14628751 -.00000133  00000-0  92780-3 0  7789\n2 10976  21.8979  25.4198 7180355 293.3173  15.7524  2.22310308304469",
        "calc_drag": 0.0009278,
        "timestamp": "2016-01-04 03:30:39",
        "inclination": "21.8979",
        "eccentricity": "7180355",
        "classification": "U",
        "calc_right_ascension": 25.4198,
        "calc_mean_motion_2": 0,
        "ballistic_coefficient": "-.00000133",
        "filename": "tle2016.txt",
        "calc_eccentricity": 0.7180355,
        "mean_motion": "2.22310308",
        "mean_motion_2": "00000-0"
      }
    },
    {
      "_index": "tle",
      "_type": "_doc",
      "_id": "i2hetnYBAz3ao6c9dLuW",
      "_score": 9.904248,
      "_source": {
        "right_ascension": "259.2240",
        "anomaly": "358.7487",
        "calc_anomaly": 358.7487,
        "satellite_number": 10976,
        "calc_mean_motion": 2.22304828,
        "ephemeris": "0",
        "set_number": "35",
        "calc_ballistic_coefficient": -0.00000124,
        "epoch": "17006.08632240",
        "international_designator": "78068B",
        "calc_inclination": 21.5788,
        "perigee": "157.9788",
        "revolution_number": "31264",
        "line_number": 188083,
        "calc_perigee": 157.9788,
        "drag": "-72712-3",
        "text": "1 10976U 78068B   17006.08632240 -.00000124  00000-0 -72712-3 0   353\n2 10976  21.5788 259.2240 7167139 157.9788 358.7487  2.22304828312648",
        "calc_drag": -0.00072712,
        "timestamp": "2017-01-06 02:04:18",
        "inclination": "21.5788",
        "eccentricity": "7167139",
        "classification": "U",
        "calc_right_ascension": 259.224,
        "calc_mean_motion_2": 0,
        "ballistic_coefficient": "-.00000124",
        "filename": "tle2017.txt",
        "calc_eccentricity": 0.7167139,
        "mean_motion": "2.22304828",
        "mean_motion_2": "00000-0"
      }
    },
    {
      "_index": "tle",
      "_type": "_doc",
      "_id": "M_hntnYBwxzt-Zlw7eqp",
      "_score": 9.904248,
      "_source": {
        "right_ascension": "133.2546",
        "anomaly": "113.6096",
        "calc_anomaly": 113.6096,
        "satellite_number": 10976,
        "calc_mean_motion": 2.22309345,
        "ephemeris": "0",
        "set_number": "295",
        "calc_ballistic_coefficient": -0.00000161,
        "epoch": "18001.08657194",
        "international_designator": "78068B",
        "calc_inclination": 21.4846,
        "perigee": "21.2650",
        "revolution_number": "32065",
        "line_number": 27627,
        "calc_perigee": 21.265,
        "drag": "-67483-3",
        "text": "1 10976U 78068B   18001.08657194 -.00000161  00000-0 -67483-3 0  2952\n2 10976  21.4846 133.2546 7160258  21.2650 113.6096  2.22309345320651",
        "calc_drag": -0.00067483,
        "timestamp": "2018-01-01 02:04:39",
        "inclination": "21.4846",
        "eccentricity": "7160258",
        "classification": "U",
        "calc_right_ascension": 133.2546,
        "calc_mean_motion_2": 0,
        "ballistic_coefficient": "-.00000161",
        "filename": "tle2018.txt",
        "calc_eccentricity": 0.7160258,
        "mean_motion": "2.22309345",
        "mean_motion_2": "00000-0"
      }
    },
    {
      "_index": "tle",
      "_type": "_doc",
      "_id": "juB4tXYBwxzt-ZlwbSRf",
      "_score": 9.726809,
      "_source": {
        "right_ascension": "47.9329",
        "anomaly": "66.9198",
        "calc_anomaly": 66.9198,
        "satellite_number": 10976,
        "calc_mean_motion": 2.22212586,
        "ephemeris": "0",
        "set_number": "227",
        "calc_ballistic_coefficient": -3.7e-7,
        "epoch": "04146.94055091",
        "international_designator": "78068B",
        "calc_inclination": 22.0129,
        "perigee": "213.6340",
        "revolution_number": "21016",
        "line_number": 172807,
        "calc_perigee": 213.634,
        "drag": "19086-2",
        "text": "1 10976U 78068B   04146.94055091 -.00000037  00000-0  19086-2 0  2271\n2 10976  22.0129  47.9329 7185583 213.6340  66.9198  2.22212586210160",
        "calc_drag": 0.0019086,
        "timestamp": "2004-05-25 22:34:23",
        "inclination": "22.0129",
        "eccentricity": "7185583",
        "classification": "U",
        "calc_right_ascension": 47.9329,
        "calc_mean_motion_2": 0,
        "ballistic_coefficient": "-.00000037",
        "filename": "tle2004_1of8.txt",
        "calc_eccentricity": 0.7185583,
        "mean_motion": "2.22212586",
        "mean_motion_2": "00000-0"
      }
    }
  ]
}